{
  "type": "FeatureCollection",
  "features": [
    {
      "type": "Feature",
      "properties": {
        "norad_id": 44334,
        "name": "EUTELSAT 7C",
        "group": "eutelsat",
        "lat": 0.038099837731055596,
        "lon": -13.855471649350644,
        "alt_km": 35791.699360177445,
        "timestamp": "2025-12-02T17:49:11.697294+00:00",
        "meta_object_name": "EUTELSAT 7C",
        "meta_object_id": "2019-034B",
        "meta_epoch": "2025-12-02T05:15:21.542112",
        "meta_mean_motion": 1.0027126,
        "meta_eccentricity": 0.000345,
        "meta_inclination": 0.0769,
        "meta_ra_of_asc_node": 181.9237,
        "meta_arg_of_pericenter": 51.9021,
        "meta_mean_anomaly": 283.3354,
        "meta_ephemeris_type": 0,
        "meta_classification_type": "U",
        "meta_norad_cat_id": 44334,
        "meta_element_set_no": 999,
        "meta_rev_at_epoch": 486,
        "meta_bstar": 0,
        "meta_mean_motion_dot": 6.9e-07,
        "meta_mean_motion_ddot": 0,
        "tle_line1": "1 44334U 19034B   25336.21899933  .00000069  00000+0  00000+0 0  9991",
        "tle_line2": "2 44334   0.0769 181.9237 0003450  51.9021 283.3354  1.00271260  4868"
      },
      "geometry": {
        "type": "Point",
        "coordinates": [
          -13.855471649350644,
          0.038099837731055596
        ]
      }
    },
    {
      "type": "Feature",
      "properties": {
        "norad_id": 44624,
        "name": "EUTELSAT 5 WEST B",
        "group": "eutelsat",
        "lat": 0.018291267304951432,
        "lon": -25.83292922827969,
        "alt_km": 35783.67463487552,
        "timestamp": "2025-12-02T17:49:11.697306+00:00",
        "meta_object_name": "EUTELSAT 5 WEST B",
        "meta_object_id": "2019-067A",
        "meta_epoch": "2025-12-02T06:54:42.025824",
        "meta_mean_motion": 1.00272691,
        "meta_eccentricity": 0.0003638,
        "meta_inclination": 0.0729,
        "meta_ra_of_asc_node": 326.0859,
        "meta_arg_of_pericenter": 286.0913,
        "meta_mean_anomaly": 277.9031,
        "meta_ephemeris_type": 0,
        "meta_classification_type": "U",
        "meta_norad_cat_id": 44624,
        "meta_element_set_no": 999,
        "meta_rev_at_epoch": 2246,
        "meta_bstar": 0,
        "meta_mean_motion_dot": -2.1e-07,
        "meta_mean_motion_ddot": 0,
        "tle_line1": "1 44624U 19067A   25336.28798641 -.00000021  00000+0  00000+0 0  9999",
        "tle_line2": "2 44624   0.0729 326.0859 0003638 286.0913 277.9031  1.00272691 22463"
      },
      "geometry": {
        "type": "Point",
        "coordinates": [
          -25.83292922827969,
          0.018291267304951432
        ]
      }
    },
    {
      "type": "Feature",
      "properties": {
        "norad_id": 45027,
        "name": "EUTELSAT KONNECT",
        "group": "eutelsat",
        "lat": -0.04653150269671598,
        "lon": -13.675737129663165,
        "alt_km": 35784.855965820905,
        "timestamp": "2025-12-02T17:49:11.697317+00:00",
        "meta_object_name": "EUTELSAT KONNECT",
        "meta_object_id": "2020-005B",
        "meta_epoch": "2025-12-02T08:40:54.355008",
        "meta_mean_motion": 1.00270943,
        "meta_eccentricity": 0.0001605,
        "meta_inclination": 0.0668,
        "meta_ra_of_asc_node": 100.4804,
        "meta_arg_of_pericenter": 168.2818,
        "meta_mean_anomaly": 300.1251,
        "meta_ephemeris_type": 0,
        "meta_classification_type": "U",
        "meta_norad_cat_id": 45027,
        "meta_element_set_no": 999,
        "meta_rev_at_epoch": 2235,
        "meta_bstar": 0,
        "meta_mean_motion_dot": 7e-07,
        "meta_mean_motion_ddot": 0,
        "tle_line1": "1 45027U 20005B   25336.36174022  .00000070  00000+0  00000+0 0  9994",
        "tle_line2": "2 45027   0.0668 100.4804 0001605 168.2818 300.1251  1.00270943 22353"
      },
      "geometry": {
        "type": "Point",
        "coordinates": [
          -13.675737129663165,
          -0.04653150269671598
        ]
      }
    },
    {
      "type": "Feature",
      "properties": {
        "norad_id": 49056,
        "name": "EUTELSAT QUANTUM",
        "group": "eutelsat",
        "lat": 0.022059407519003513,
        "lon": 26.85850970122879,
        "alt_km": 35794.37062394405,
        "timestamp": "2025-12-02T17:49:11.697328+00:00",
        "meta_object_name": "EUTELSAT QUANTUM",
        "meta_object_id": "2021-069B",
        "meta_epoch": "2025-12-02T06:48:38.528064",
        "meta_mean_motion": 1.00271277,
        "meta_eccentricity": 0.0003691,
        "meta_inclination": 0.0154,
        "meta_ra_of_asc_node": 4.2,
        "meta_arg_of_pericenter": 261.1409,
        "meta_mean_anomaly": 315.9194,
        "meta_ephemeris_type": 0,
        "meta_classification_type": "U",
        "meta_norad_cat_id": 49056,
        "meta_element_set_no": 999,
        "meta_rev_at_epoch": 1595,
        "meta_bstar": 0,
        "meta_mean_motion_dot": 1.47e-06,
        "meta_mean_motion_ddot": 0,
        "tle_line1": "1 49056U 21069B   25336.28377926  .00000147  00000+0  00000+0 0  9995",
        "tle_line2": "2 49056   0.0154   4.2000 0003691 261.1409 315.9194  1.00271277 15953"
      },
      "geometry": {
        "type": "Point",
        "coordinates": [
          26.85850970122879,
          0.022059407519003513
        ]
      }
    },
    {
      "type": "Feature",
      "properties": {
        "norad_id": 53765,
        "name": "EUTELSAT KONNECT VHTS",
        "group": "eutelsat",
        "lat": -0.035724020996301335,
        "lon": -18.163807221515075,
        "alt_km": 35791.44801148378,
        "timestamp": "2025-12-02T17:49:11.697340+00:00",
        "meta_object_name": "EUTELSAT KONNECT VHTS",
        "meta_object_id": "2022-110A",
        "meta_epoch": "2025-12-02T08:39:39.472992",
        "meta_mean_motion": 1.00268502,
        "meta_eccentricity": 0.0002715,
        "meta_inclination": 0.0576,
        "meta_ra_of_asc_node": 108.477,
        "meta_arg_of_pericenter": 120.3305,
        "meta_mean_anomaly": 335.2715,
        "meta_ephemeris_type": 0,
        "meta_classification_type": "U",
        "meta_norad_cat_id": 53765,
        "meta_element_set_no": 999,
        "meta_rev_at_epoch": 485,
        "meta_bstar": 0,
        "meta_mean_motion_dot": 3.7e-07,
        "meta_mean_motion_ddot": 0,
        "tle_line1": "1 53765U 22110A   25336.36087353  .00000037  00000+0  00000+0 0  9994",
        "tle_line2": "2 53765   0.0576 108.4770 0002715 120.3305 335.2715  1.00268502  4859"
      },
      "geometry": {
        "type": "Point",
        "coordinates": [
          -18.163807221515075,
          -0.035724020996301335
        ]
      }
    },
    {
      "type": "Feature",
      "properties": {
        "norad_id": 54048,
        "name": "EUTELSAT HOTBIRD 13F",
        "group": "eutelsat",
        "lat": 0.06544136174327188,
        "lon": -7.882469913807821,
        "alt_km": 35778.067633358034,
        "timestamp": "2025-12-02T17:49:11.697351+00:00",
        "meta_object_name": "EUTELSAT HOTBIRD 13F",
        "meta_object_id": "2022-134A",
        "meta_epoch": "2025-12-02T08:42:24.211008",
        "meta_mean_motion": 1.00271528,
        "meta_eccentricity": 0.0001919,
        "meta_inclination": 0.0553,
        "meta_ra_of_asc_node": 288.4275,
        "meta_arg_of_pericenter": 67.0912,
        "meta_mean_anomaly": 219.5562,
        "meta_ephemeris_type": 0,
        "meta_classification_type": "U",
        "meta_norad_cat_id": 54048,
        "meta_element_set_no": 999,
        "meta_rev_at_epoch": 1140,
        "meta_bstar": 0,
        "meta_mean_motion_dot": 1.08e-06,
        "meta_mean_motion_ddot": 0,
        "tle_line1": "1 54048U 22134A   25336.36278022  .00000108  00000+0  00000+0 0  9999",
        "tle_line2": "2 54048   0.0553 288.4275 0001919  67.0912 219.5562  1.00271528 11409"
      },
      "geometry": {
        "type": "Point",
        "coordinates": [
          -7.882469913807821,
          0.06544136174327188
        ]
      }
    },
    {
      "type": "Feature",
      "properties": {
        "norad_id": 54225,
        "name": "EUTELSAT HOTBIRD 13G",
        "group": "eutelsat",
        "lat": 0.05508470578501314,
        "lon": -7.882150045497129,
        "alt_km": 35795.138151113155,
        "timestamp": "2025-12-02T17:49:11.697362+00:00",
        "meta_object_name": "EUTELSAT HOTBIRD 13G",
        "meta_object_id": "2022-146A",
        "meta_epoch": "2025-12-02T08:42:31.699296",
        "meta_mean_motion": 1.00270969,
        "meta_eccentricity": 0.0002157,
        "meta_inclination": 0.0484,
        "meta_ra_of_asc_node": 239.7787,
        "meta_arg_of_pericenter": 304.14,
        "meta_mean_anomaly": 31.1819,
        "meta_ephemeris_type": 0,
        "meta_classification_type": "U",
        "meta_norad_cat_id": 54225,
        "meta_element_set_no": 999,
        "meta_rev_at_epoch": 549,
        "meta_bstar": 0,
        "meta_mean_motion_dot": 1.08e-06,
        "meta_mean_motion_ddot": 0,
        "tle_line1": "1 54225U 22146A   25336.36286689  .00000108  00000+0  00000+0 0  9997",
        "tle_line2": "2 54225   0.0484 239.7787 0002157 304.1400  31.1819  1.00270969  5491"
      },
      "geometry": {
        "type": "Point",
        "coordinates": [
          -7.882150045497129,
          0.05508470578501314
        ]
      }
    }
  ]
}